{
  "norad_id": 66406,
  "name": "STARLINK-34840",
  "history": [
    {
      "epoch": "2026-03-28T19:41:25.748160Z",
      "apogee_km": 476.1766380345671,
      "perigee_km": 474.22494449837086,
      "latitude_deg": -3.247752310194242e-05,
      "longitude_deg": 6.474996398207343,
      "height_km": 475.96898467747906,
      "semi_major_axis_km": 6853.337791266469,
      "eccentricity": 0.00014239,
      "inclination_deg": 53.1596,
      "raan_deg": 128.0677,
      "arg_perigee_deg": 82.365,
      "mean_anomaly_deg": 277.7512,
      "mean_motion_rev_day": 15.30204782
    },
    {
      "epoch": "2026-03-30T03:02:29.694912Z",
      "apogee_km": 476.28355767083576,
      "perigee_km": 474.13845974411106,
      "latitude_deg": 3.316678558950546e-05,
      "longitude_deg": -111.14684268299621,
      "height_km": 476.18644042179415,
      "semi_major_axis_km": 6853.348008707473,
      "eccentricity": 0.0001565,
      "inclination_deg": 53.1588,
      "raan_deg": 121.9998,
      "arg_perigee_deg": 94.1649,
      "mean_anomaly_deg": 265.9531,
      "mean_motion_rev_day": 15.3020136
    },
    {
      "epoch": "2026-03-30T06:10:36.142464Z",
      "apogee_km": 475.8852685218417,
      "perigee_km": 474.51227123370427,
      "latitude_deg": -9.763768118080916e-07,
      "longitude_deg": -158.9075877519341,
      "height_km": 475.51783472231153,
      "semi_major_axis_km": 6853.335769877773,
      "eccentricity": 0.00010017,
      "inclination_deg": 53.1583,
      "raan_deg": 121.3947,
      "arg_perigee_deg": 32.372,
      "mean_anomaly_deg": 327.7342,
      "mean_motion_rev_day": 15.30205459
    }
  ]
}